{"type": "FeatureCollection", "features": [ {"type": "Feature", "properties": {"norad_id": 35073, "name": "COSMOS 2251 DEB", "group": "cosmos-2251-debris", "lat": -46.85914442403147, "lon": -29.06014755957568, "alt_km": 579.830964475901, "timestamp": "2025-12-03T19:33:07.373270+00:00", "meta": {"OBJECT_NAME": "COSMOS 2251 DEB", "OBJECT_ID": "1993-036AJC", "EPOCH": "2025-11-29T08:29:21.429600", "MEAN_MOTION": 14.99364384, "ECCENTRICITY": 0.00097336, "INCLINATION": 74.0024, "RA_OF_ASC_NODE": 357.8403, "ARG_OF_PERICENTER": 101.5288, "MEAN_ANOMALY": 258.6992, "EPHEMERIS_TYPE": 0, "CLASSIFICATION_TYPE": "U", "NORAD_CAT_ID": 35073, "ELEMENT_SET_NO": 999, "REV_AT_EPOCH": 67278, "BSTAR": 0.00211185, "MEAN_MOTION_DOT": 0.00025921, "MEAN_MOTION_DDOT": 0}, "tle": {"line1": "1 35073U 93036AJC 25333.35372025  .00025921  00000+0  21119-2 0  9996", "line2": "2 35073  74.0024 357.8403 0009733 101.5288 258.6992 14.99364384672786"}}, "geometry": {"type": "Point", "coordinates": [-29.06014755957568, -46.85914442403147]}}, {"type": "Feature", "properties": {"norad_id": 35284, "name": "COSMOS 2251 DEB", "group": "cosmos-2251-debris", "lat": -42.55458944401891, "lon": 116.08084778513037, "alt_km": 778.5439895148593, "timestamp": "2025-12-03T19:33:07.373280+00:00", "meta": {"OBJECT_NAME": "COSMOS 2251 DEB", "OBJECT_ID": "1993-036AJN", "EPOCH": "2025-12-01T13:38:31.155360", "MEAN_MOTION": 14.382963, "ECCENTRICITY": 0.00163281, "INCLINATION": 74.049, "RA_OF_ASC_NODE": 284.9919, "ARG_OF_PERICENTER": 3.7139, "MEAN_ANOMALY": 114.9177, "EPHEMERIS_TYPE": 0, "CLASSIFICATION_TYPE": "U", "NORAD_CAT_ID": 35284, "ELEMENT_SET_NO": 999, "REV_AT_EPOCH": 65365, "BSTAR": 0.00020439824, "MEAN_MOTION_DOT": 5.97e-06, "MEAN_MOTION_DDOT": 0}, "tle": {"line1": "1 35284U 93036AJN 25335.56841615  .00000597  00000+0  20440-3 0  9990", "line2": "2 35284  74.0490 284.9919 0016328   3.7139 114.9177 14.38296300653654"}}, "geometry": {"type": "Point", "coordinates": [116.08084778513037, -42.55458944401891]}}, {"type": "Feature", "properties": {"norad_id": 35287, "name": "COSMOS 2251 DEB", "group": "cosmos-2251-debris", "lat": 69.59152941143078, "lon": 62.21213097990589, "alt_km": 759.4353522589663, "timestamp": "2025-12-03T19:33:07.373294+00:00", "meta": {"OBJECT_NAME": "COSMOS 2251 DEB", "OBJECT_ID": "1993-036AJR", "EPOCH": "2025-12-03T08:05:46.925952", "MEAN_MOTION": 14.3636224, "ECCENTRICITY": 0.0017175, "INCLINATION": 74.0299, "RA_OF_ASC_NODE": 293.4128, "ARG_OF_PERICENTER": 32.768, "MEAN_ANOMALY": 122.7025, "EPHEMERIS_TYPE": 0, "CLASSIFICATION_TYPE": "U", "NORAD_CAT_ID": 35287, "ELEMENT_SET_NO": 999, "REV_AT_EPOCH": 86757, "BSTAR": 0.00022522, "MEAN_MOTION_DOT": 6.34e-06, "MEAN_MOTION_DDOT": 0}, "tle": {"line1": "1 35287U 93036AJR 25337.33734868  .00000634  00000+0  22522-3 0  9996", "line2": "2 35287  74.0299 293.4128 0017175  32.7680 122.7025 14.36362240867577"}}, "geometry": {"type": "Point", "coordinates": [62.21213097990589, 69.59152941143078]}}, {"type": "Feature", "properties": {"norad_id": 35288, "name": "COSMOS 2251 DEB", "group": "cosmos-2251-debris", "lat": 40.00725781029492, "lon": 46.42484049068145, "alt_km": 692.4477372796509, "timestamp": "2025-12-03T19:33:07.373305+00:00", "meta": {"OBJECT_NAME": "COSMOS 2251 DEB", "OBJECT_ID": "1993-036AJS", "EPOCH": "2025-12-02T12:13:38.607168", "MEAN_MOTION": 14.65270796, "ECCENTRICITY": 0.00396065, "INCLINATION": 73.9516, "RA_OF_ASC_NODE": 34.9675, "ARG_OF_PERICENTER": 269.719, "MEAN_ANOMALY": 89.9439, "EPHEMERIS_TYPE": 0, "CLASSIFICATION_TYPE": "U", "NORAD_CAT_ID": 35288, "ELEMENT_SET_NO": 999, "REV_AT_EPOCH": 87728, "BSTAR": 0.0014116495, "MEAN_MOTION_DOT": 7.675e-05, "MEAN_MOTION_DDOT": 0}, "tle": {"line1": "1 35288U 93036AJS 25336.50947462  .00007675  00000+0  14116-2 0  9992", "line2": "2 35288  73.9516  34.9675 0039606 269.7190  89.9439 14.65270796877282"}}, "geometry": {"type": "Point", "coordinates": [46.42484049068145, 40.00725781029492]}}, {"type": "Feature", "properties": {"norad_id": 35290, "name": "COSMOS 2251 DEB", "group": "cosmos-2251-debris", "lat": -25.215473415826317, "lon": -95.1839181559051, "alt_km": 632.2718367948746, "timestamp": "2025-12-03T19:33:07.373315+00:00", "meta": {"OBJECT_NAME": "COSMOS 2251 DEB", "OBJECT_ID": "1993-036AJU", "EPOCH": "2025-12-01T06:35:33.142560", "MEAN_MOTION": 14.79807104, "ECCENTRICITY": 0.00037082, "INCLINATION": 74.0051, "RA_OF_ASC_NODE": 82.0624, "ARG_OF_PERICENTER": 206.8807, "MEAN_ANOMALY": 153.2178, "EPHEMERIS_TYPE": 0, "CLASSIFICATION_TYPE": "U", "NORAD_CAT_ID": 35290, "ELEMENT_SET_NO": 999, "REV_AT_EPOCH": 87788, "BSTAR": 0.002855926, "MEAN_MOTION_DOT": 0.00021548, "MEAN_MOTION_DDOT": 0}, "tle": {"line1": "1 35290U 93036AJU 25335.27468915  .00021548  00000+0  28559-2 0  9990", "line2": "2 35290  74.0051  82.0624 0003708 206.8807 153.2178 14.79807104877885"}}, "geometry": {"type": "Point", "coordinates": [-95.1839181559051, -25.215473415826317]}}, {"type": "Feature", "properties": {"norad_id": 35432, "name": "COSMOS 2251 DEB", "group": "cosmos-2251-debris", "lat": -10.63759704569224, "lon": -142.59161107575463, "alt_km": 518.4982781786275, "timestamp": "2025-12-03T19:33:07.373325+00:00", "meta": {"OBJECT_NAME": "COSMOS 2251 DEB", "OBJECT_ID": "1993-036AKA", "EPOCH": "2025-12-02T12:41:27.608064", "MEAN_MOTION": 15.19283243, "ECCENTRICITY": 0.00119971, "INCLINATION": 74.023, "RA_OF_ASC_NODE": 37.0177, "ARG_OF_PERICENTER": 353.9321, "MEAN_ANOMALY": 6.1728, "EPHEMERIS_TYPE": 0, "CLASSIFICATION_TYPE": "U", "NORAD_CAT_ID": 35432, "ELEMENT_SET_NO": 999, "REV_AT_EPOCH": 87348, "BSTAR": 0.0074321278, "MEAN_MOTION_DOT": 0.00160594, "MEAN_MOTION_DDOT": 0}, "tle": {"line1": "1 35432U 93036AKA 25336.52879176  .00160594  00000+0  74321-2 0  9995", "line2": "2 35432  74.0230  37.0177 0011997 353.9321   6.1728 15.19283243873485"}}, "geometry": {"type": "Point", "coordinates": [-142.59161107575463, -10.63759704569224]}}, {"type": "Feature", "properties": {"norad_id": 35433, "name": "COSMOS 2251 DEB", "group": "cosmos-2251-debris", "lat": -73.78280040399622, "lon": -85.0066774894029, "alt_km": 796.8772563140856, "timestamp": "2025-12-03T19:33:07.373335+00:00", "meta": {"OBJECT_NAME": "COSMOS 2251 DEB", "OBJECT_ID": "1993-036AKB", "EPOCH": "2025-11-29T08:56:22.068960", "MEAN_MOTION": 14.34715508, "ECCENTRICITY": 0.00253594, "INCLINATION": 74.0352, "RA_OF_ASC_NODE": 2.9393, "ARG_OF_PERICENTER": 62.2545, "MEAN_ANOMALY": 316.1289, "EPHEMERIS_TYPE": 0, "CLASSIFICATION_TYPE": "U", "NORAD_CAT_ID": 35433, "ELEMENT_SET_NO": 999, "REV_AT_EPOCH": 86389, "BSTAR": 0.00023326055, "MEAN_MOTION_DOT": 6.37e-06, "MEAN_MOTION_DDOT": 0}, "tle": {"line1": "1 35433U 93036AKB 25333.37247765  .00000637  00000+0  23326-3 0  9990", "line2": "2 35433  74.0352   2.9393 0025359  62.2545 316.1289 14.34715508863897"}}, "geometry": {"type": "Point", "coordinates": [-85.0066774894029, -73.78280040399622]}}, {"type": "Feature", "properties": {"norad_id": 35434, "name": "COSMOS 2251 DEB", "group": "cosmos-2251-debris", "lat": 57.02146102063529, "lon": 23.568974426886893, "alt_km": 863.3823203378215, "timestamp": "2025-12-03T19:33:07.373345+00:00", "meta": {"OBJECT_NAME": "COSMOS 2251 DEB", "OBJECT_ID": "1993-036AKC", "EPOCH": "2025-11-30T00:02:53.789280", "MEAN_MOTION": 14.25623606, "ECCENTRICITY": 0.00876191, "INCLINATION": 74.0414, "RA_OF_ASC_NODE": 236.6139, "ARG_OF_PERICENTER": 309.9857, "MEAN_ANOMALY": 49.362, "EPHEMERIS_TYPE": 0, "CLASSIFICATION_TYPE": "U", "NORAD_CAT_ID": 35434, "ELEMENT_SET_NO": 999, "REV_AT_EPOCH": 85936, "BSTAR": 0.00077223856, "MEAN_MOTION_DOT": 1.879e-05, "MEAN_MOTION_DDOT": 0}, "tle": {"line1": "1 35434U 93036AKC 25334.00201145  .00001879  00000+0  77224-3 0  9999", "line2": "2 35434  74.0414 236.6139 0087619 309.9857  49.3620 14.25623606859363"}}, "geometry": {"type": "Point", "coordinates": [23.568974426886893, 57.02146102063529]}}, {"type": "Feature", "properties": {"norad_id": 35435, "name": "COSMOS 2251 DEB", "group": "cosmos-2251-debris", "lat": 60.140765754256414, "lon": 151.59358818616866, "alt_km": 635.219685828386, "timestamp": "2025-12-03T19:33:07.373355+00:00", "meta": {"OBJECT_NAME": "COSMOS 2251 DEB", "OBJECT_ID": "1993-036AKD", "EPOCH": "2025-12-01T04:42:29.570112", "MEAN_MOTION": 14.77856988, "ECCENTRICITY": 0.0009617, "INCLINATION": 74.0095, "RA_OF_ASC_NODE": 126.7727, "ARG_OF_PERICENTER": 217.2149, "MEAN_ANOMALY": 321.5063, "EPHEMERIS_TYPE": 0, "CLASSIFICATION_TYPE": "U", "NORAD_CAT_ID": 35435, "ELEMENT_SET_NO": 999, "REV_AT_EPOCH": 87368, "BSTAR": 0.0028899, "MEAN_MOTION_DOT": 0.00020833, "MEAN_MOTION_DDOT": 0}, "tle": {"line1": "1 35435U 93036AKD 25335.19617558  .00020833  00000+0  28899-2 0  9994", "line2": "2 35435  74.0095 126.7727 0009617 217.2149 321.5063 14.77856988873683"}}, "geometry": {"type": "Point", "coordinates": [151.59358818616866, 60.140765754256414]}}, {"type": "Feature", "properties": {"norad_id": 35439, "name": "COSMOS 2251 DEB", "group": "cosmos-2251-debris", "lat": -32.80452496509474, "lon": -19.32359780021099, "alt_km": 972.6134997549871, "timestamp": "2025-12-03T19:33:07.373365+00:00", "meta": {"OBJECT_NAME": "COSMOS 2251 DEB", "OBJECT_ID": "1993-036AKH", "EPOCH": "2025-12-02T05:27:33.223104", "MEAN_MOTION": 13.92736992, "ECCENTRICITY": 0.0241628, "INCLINATION": 74.0171, "RA_OF_ASC_NODE": 152.7492, "ARG_OF_PERICENTER": 324.3535, "MEAN_ANOMALY": 217.5666, "EPHEMERIS_TYPE": 0, "CLASSIFICATION_TYPE": "U", "NORAD_CAT_ID": 35439, "ELEMENT_SET_NO": 999, "REV_AT_EPOCH": 83814, "BSTAR": 0.0017362, "MEAN_MOTION_DOT": 2.829e-05, "MEAN_MOTION_DDOT": 0}, "tle": {"line1": "1 35439U 93036AKH 25336.22746786  .00002829  00000+0  17362-2 0  9997", "line2": "2 35439  74.0171 152.7492 0241628 324.3535 217.5666 13.92736992838142"}}, "geometry": {"type": "Point", "coordinates": [-19.32359780021099, -32.80452496509474]}}]}